OBJECT_NAME,OBJECT_ID,EPOCH,MEAN_MOTION,ECCENTRICITY,INCLINATION,RA_OF_ASC_NODE,ARG_OF_PERICENTER,MEAN_ANOMALY,EPHEMERIS_TYPE,CLASSIFICATION_TYPE,NORAD_CAT_ID,ELEMENT_SET_NO,REV_AT_EPOCH,BSTAR,MEAN_MOTION_DOT,MEAN_MOTION_DDOT
CUBEBUG-2 (LO-74),2013-066AA,2026-06-30T19:04:32.462688,14.93871723,.0056909,97.8910,130.8314,344.0423,15.9001,0,U,39440,999,67902,.43003E-3,.4655E-4,0
FUNCUBE-1 (AO-73),2013-066AE,2026-06-30T20:15:27.507168,15.09653397,.003714,97.8284,153.5766,154.4436,205.8639,0,U,39444,999,68172,.45304E-3,.7343E-4,0
UWE-3,2013-066AG,2026-06-30T20:24:53.143776,14.97126889,.0047038,97.8711,138.0184,274.5118,85.0730,0,U,39446,999,67962,.27807E-3,.3219E-4,0
UNISAT-6,2014-033C,2026-06-30T15:31:51.079008,14.88310097,.0045408,97.7891,334.1229,25.8668,334.4805,0,U,40012,999,64816,.28727E-3,.2651E-4,0
DUCHIFAT-1,2014-033M,2026-06-30T15:11:12.066720,15.67461809,.0000381,98.0444,242.7107,95.0566,265.0736,0,U,40021,999,65785,.1116E-2,.122192E-2,0
QB50P1,2014-033R,2026-06-30T06:21:04.432032,15.18453201,.00091928,98.0957,193.3288,170.0607,190.0809,0,U,40025,999,65501,.37202082E-3,.7596E-4,0
LILACSAT-2,2015-049K,2026-06-30T21:06:33.573600,15.51893191,.000694,97.4625,219.2441,187.1923,172.9231,0,U,40908,999,59787,.31892E-3,.19049E-3,0
FOX-1A (AO-85),2015-058D,2026-06-30T18:24:50.359392,14.91024498,.0131307,64.7740,236.7799,51.3115,309.9655,0,U,40967,999,11559,.1898E-3,.204E-4,0
CAS-2T & KS-1Q,2016-066G,2026-06-30T16:14:42.078624,14.44737359,.0342831,98.3819,257.2589,88.6923,275.3512,0,U,41847,999,50674,.22787E-3,.158E-4,0
RADFXSAT (FOX-1B),2017-073E,2026-06-30T13:39:22.965120,15.12893104,.0148328,97.4686,48.5107,282.5576,75.9100,0,U,43017,999,46741,.29341E-3,.6695E-4,0
DIWATA-2B,2018-084H,2026-06-30T20:10:29.078976,15.00511154,.0013094,98.1199,18.6450,127.7607,232.4804,0,U,43678,999,41826,.18656E-3,.2289E-4,0
ES'HAIL 2,2018-090A,2026-06-30T20:10:38.689248,1.00272376,.0002235,0.0187,23.2704,110.3562,113.7199,0,U,43700,999,2781,0,.155E-5,0
FOX-1CLIFF (AO-95),2018-099N,2026-06-30T15:27:03.572640,15.26988852,.0006999,97.4380,241.8422,303.0257,57.0309,0,U,43770,999,41527,.43935E-3,.11579E-3,0
ITASAT,2018-099AE,2026-06-30T14:10:36.073056,15.19218577,.0010949,97.4020,232.8356,309.6889,50.3380,0,U,43786,999,41494,.30036E-3,.6267E-4,0
JY1SAT (JO-97),2018-099AX,2026-06-30T03:26:25.095264,15.34057952,.0005404,97.4129,244.0253,207.7837,152.3117,0,U,43803,999,41561,.4634271E-3,.15212E-3,0
UWE-4,2018-111E,2026-06-30T14:36:36.165024,15.46943999,.0004324,97.5854,110.6256,267.4417,92.6337,0,U,43880,999,41285,.63475E-3,.31984E-3,0
TIANYAN 01,2019-093C,2026-06-30T20:14:58.966656,14.86541996,.0014777,97.7535,253.7428,46.3894,313.8546,0,U,44881,999,35344,.10884E-3,.912E-5,0
RS-44 & BREEZE-KM R/B,2019-096E,2026-06-30T10:51:22.090464,12.79748923,.02185039,82.5224,330.8897,113.2889,249.1374,0,U,44909,999,30404,-.18766128E-4,.8E-7,0
SALSAT,2020-068K,2026-06-30T11:43:12.412704,15.29983096,.0007929,97.8843,185.3641,251.0233,109.0147,0,U,46495,999,31739,.26165469E-3,.7517E-4,0
XW-3 (CAS-9),2021-131B,2026-06-30T20:51:19.385568,14.41369344,.0005273,98.4991,274.1846,65.1750,294.9986,0,U,50466,999,23708,.15009E-3,.442E-5,0
GREENCUBE (IO-117),2022-080E,2026-06-30T17:23:31.202016,6.42583253,.0008959,70.1437,293.5372,286.6703,73.2973,0,U,53109,999,9293,0,-.3E-7,0
UMKA 1 (RS40S),2023-091G,2026-06-30T18:41:33.040896,15.20972326,.0014137,97.5044,240.4243,75.6795,284.6009,0,U,57172,999,16607,.30284E-3,.6658E-4,0
CUBESX-HSE 3 (RS42S),2023-091N,2026-06-30T19:55:55.143840,15.31554406,.0011178,97.5089,247.5922,51.6408,308.5835,0,U,57178,999,16651,.48168E-3,.14637E-3,0
MONITOR-3 (RS58S),2023-091Q,2026-06-30T19:40:37.554240,15.28113784,.0012434,97.5078,245.3674,58.0811,302.1636,0,U,57180,999,16637,.43418E-3,.11858E-3,0
MONITOR-4 (RS57S),2023-091S,2026-06-30T19:09:22.802112,15.28198148,.0012435,97.5073,245.3177,58.4220,301.8231,0,U,57182,999,16637,.44503E-3,.12188E-3,0
MONITOR-2 (RS39S),2023-091U,2026-06-30T19:36:53.362656,15.19036248,.0012545,97.5066,240.0124,69.6352,290.6229,0,U,57184,999,16602,.25504E-3,.5284E-4,0
SVYATOBOR 1 (RS60S),2023-091X,2026-06-30T19:45:18.767232,15.26843414,.0010197,97.5085,245.7167,52.7667,307.4500,0,U,57187,999,16639,.37581E-3,.9855E-4,0
VIZARD-METEO (RS38S),2023-091Z,2026-06-30T19:49:52.961088,15.36454620,.000711,97.5090,251.5878,34.1141,326.0558,0,U,57189,999,16678,.54735E-3,.19425E-3,0
POLYTECH-UNIVERSE 3 (RS46S),2023-091AB,2026-06-30T18:38:35.024928,15.19241823,.0017005,97.5041,239.4764,83.9352,276.3820,0,U,57191,999,16601,.26502E-3,.5536E-4,0
UTMN 2 (RS27S),2023-091AP,2026-06-30T18:36:32.945184,15.32377482,.0008278,97.5085,249.1868,41.6234,318.5637,0,U,57203,999,16662,.41822E-3,.13016E-3,0
