CUBEBUG-2 (LO-74)       
1 39440U 13066AA  26181.79482017  .00004655  00000+0  43003-3 0  9994
2 39440  97.8910 130.8314 0056909 344.0423  15.9001 14.93871723679020
FUNCUBE-1 (AO-73)       
1 39444U 13066AE  26181.84406837  .00007343  00000+0  45304-3 0  9993
2 39444  97.8284 153.5766 0037140 154.4436 205.8639 15.09653397681724
UWE-3                   
1 39446U 13066AG  26181.85061509  .00003219  00000+0  27807-3 0  9995
2 39446  97.8711 138.0184 0047038 274.5118  85.0730 14.97126889679624
UNISAT-6                
1 40012U 14033C   26181.64711897  .00002651  00000+0  28727-3 0  9991
2 40012  97.7891 334.1229 0045408  25.8668 334.4805 14.88310097648163
DUCHIFAT-1              
1 40021U 14033M   26181.63277855  .00122192  00000+0  11160-2 0  9996
2 40021  98.0444 242.7107 0000381  95.0566 265.0736 15.67461809657851
QB50P1                  
1 40025U 14033R   26181.26463463  .00007596  00000+0  37202-3 0  9997
2 40025  98.0957 193.3288 0009192 170.0607 190.0809 15.18453201655011
LILACSAT-2              
1 40908U 15049K   26181.87955525  .00019049  00000+0  31892-3 0  9992
2 40908  97.4625 219.2441 0006940 187.1923 172.9231 15.51893191597873
FOX-1A (AO-85)          
1 40967U 15058D   26181.76724953  .00002040  00000+0  18980-3 0  9990
2 40967  64.7740 236.7799 0131307  51.3115 309.9655 14.91024498115590
CAS-2T & KS-1Q          
1 41847U 16066G   26181.67687591  .00001580  00000+0  22787-3 0  9992
2 41847  98.3819 257.2589 0342831  88.6923 275.3512 14.44737359506743
RADFXSAT (FOX-1B)       
1 43017U 17073E   26181.56901580  .00006695  00000+0  29341-3 0  9992
2 43017  97.4686  48.5107 0148328 282.5576  75.9100 15.12893104467411
DIWATA-2B               
1 43678U 18084H   26181.84061434  .00002289  00000+0  18656-3 0  9996
2 43678  98.1199  18.6450 0013094 127.7607 232.4804 15.00511154418265
ES'HAIL 2               
1 43700U 18090A   26181.84072557  .00000155  00000+0  00000+0 0  9997
2 43700   0.0187  23.2704 0002235 110.3562 113.7199  1.00272376 27817
FOX-1CLIFF (AO-95)      
1 43770U 18099N   26181.64379135  .00011579  00000+0  43935-3 0  9993
2 43770  97.4380 241.8422 0006999 303.0257  57.0309 15.26988852415277
ITASAT                  
1 43786U 18099AE  26181.59069529  .00006267  00000+0  30036-3 0  9993
2 43786  97.4020 232.8356 0010949 309.6889  50.3380 15.19218577414944
JY1SAT (JO-97)          
1 43803U 18099AX  26181.14334601  .00015212  00000+0  46343-3 0  9998
2 43803  97.4129 244.0253 0005404 207.7837 152.3117 15.34057952415617
UWE-4                   
1 43880U 18111E   26181.60875191  .00031984  00000+0  63475-3 0  9992
2 43880  97.5854 110.6256 0004324 267.4417  92.6337 15.46943999412857
TIANYAN 01              
1 44881U 19093C   26181.84373804  .00000912  00000+0  10884-3 0  9997
2 44881  97.7535 253.7428 0014777  46.3894 313.8546 14.86541996353446
RS-44 & BREEZE-KM R/B   
1 44909U 19096E   26181.45233901  .00000008  00000+0 -18766-4 0  9996
2 44909  82.5224 330.8897 0218503 113.2889 249.1374 12.79748923304043
SALSAT                  
1 46495U 20068K   26181.48833811  .00007517  00000+0  26165-3 0  9990
2 46495  97.8843 185.3641 0007929 251.0233 109.0147 15.29983096317397
XW-3 (CAS-9)            
1 50466U 21131B   26181.86897437  .00000442  00000+0  15009-3 0  9996
2 50466  98.4991 274.1846 0005273  65.1750 294.9986 14.41369344237082
GREENCUBE (IO-117)      
1 53109U 22080E   26181.72466669 -.00000003  00000+0  00000+0 0  9996
2 53109  70.1437 293.5372 0008959 286.6703  73.2973  6.42583253 92938
UMKA 1 (RS40S)          
1 57172U 23091G   26181.77885464  .00006658  00000+0  30284-3 0  9998
2 57172  97.5044 240.4243 0014137  75.6795 284.6009 15.20972326166073
CUBESX-HSE 3 (RS42S)    
1 57178U 23091N   26181.83049935  .00014637  00000+0  48168-3 0  9992
2 57178  97.5089 247.5922 0011178  51.6408 308.5835 15.31554406166516
MONITOR-3 (RS58S)       
1 57180U 23091Q   26181.81987910  .00011858  00000+0  43418-3 0  9992
2 57180  97.5078 245.3674 0012434  58.0811 302.1636 15.28113784166371
MONITOR-4 (RS57S)       
1 57182U 23091S   26181.79818058  .00012188  00000+0  44503-3 0  9990
2 57182  97.5073 245.3177 0012435  58.4220 301.8231 15.28198148166379
MONITOR-2 (RS39S)       
1 57184U 23091U   26181.81728429  .00005284  00000+0  25504-3 0  9996
2 57184  97.5066 240.0124 0012545  69.6352 290.6229 15.19036248166025
SVYATOBOR 1 (RS60S)     
1 57187U 23091X   26181.82313388  .00009855  00000+0  37581-3 0  9990
2 57187  97.5085 245.7167 0010197  52.7667 307.4500 15.26843414166399
VIZARD-METEO (RS38S)    
1 57189U 23091Z   26181.82630742  .00019425  00000+0  54735-3 0  9992
2 57189  97.5090 251.5878 0007110  34.1141 326.0558 15.36454620166784
POLYTECH-UNIVERSE 3 (R*)
1 57191U 23091AB  26181.77679427  .00005536  00000+0  26502-3 0  9991
2 57191  97.5041 239.4764 0017005  83.9352 276.3820 15.19241823166017
UTMN 2 (RS27S)          
1 57203U 23091AP  26181.77538131  .00013016  00000+0  41822-3 0  9995
2 57203  97.5085 249.1868 0008278  41.6234 318.5637 15.32377482166622
